{
  "type": "FeatureCollection",
  "name": "parcela_demostracion",
  "crs": {
    "type": "name",
    "properties": {
      "name": "urn:ogc:def:crs:EPSG::32720"
    }
  },
  "features": [
    {
      "type": "Feature",
      "properties": {
        "id": "P-001",
        "nombre": "Parcela demostración",
        "cultivo": "ejemplo sintético"
      },
      "geometry": {
        "type": "Polygon",
        "coordinates": [
          [
            [
              350120,
              7339150
            ],
            [
              350810,
              7339180
            ],
            [
              350860,
              7339790
            ],
            [
              350690,
              7339900
            ],
            [
              350190,
              7339850
            ],
            [
              350120,
              7339150
            ]
          ]
        ]
      }
    }
  ]
}
